[{"OBJECT_NAME":"ONEWEB-0114","OBJECT_ID":"2020-100E","EPOCH":"2026-03-09T19:36:52.631712","MEAN_MOTION":13.1244296,"ECCENTRICITY":0.00020197,"INCLINATION":87.9007,"RA_OF_ASC_NODE":10.377,"ARG_OF_PERICENTER":74.1238,"MEAN_ANOMALY":286.0113,"EPHEMERIS_TYPE":0,"CLASSIFICATION_TYPE":"U","NORAD_CAT_ID":47262,"ELEMENT_SET_NO":999,"REV_AT_EPOCH":25148,"BSTAR":0.0012550693,"MEAN_MOTION_DOT":4.64e-6,"MEAN_MOTION_DDOT":0},{"OBJECT_NAME":"DELTA 1 DEB","OBJECT_ID":"1975-052CQ","EPOCH":"2026-03-09T22:30:29.890080","MEAN_MOTION":13.28179028,"ECCENTRICITY":0.00803318,"INCLINATION":99.9046,"RA_OF_ASC_NODE":193.8236,"ARG_OF_PERICENTER":71.2084,"MEAN_ANOMALY":49.3629,"EPHEMERIS_TYPE":0,"CLASSIFICATION_TYPE":"U","NORAD_CAT_ID":21370,"ELEMENT_SET_NO":999,"REV_AT_EPOCH":68654,"BSTAR":0.00014678314,"MEAN_MOTION_DOT":2.6e-7,"MEAN_MOTION_DDOT":0}]
